{
  "type": "FeatureCollection",
  "features": [
    {
      "type": "Feature",
      "properties": {
        "norad_id": 67024,
        "name": "STARLINK-36192",
        "group": "last-30-days",
        "lat": -69.98004179606181,
        "lon": -147.9427707679563,
        "alt_km": 298.4571553510659,
        "timestamp": "2025-12-20T07:33:49.516789+00:00",
        "meta_object_name": "STARLINK-36192",
        "meta_object_id": "2025-293X",
        "meta_epoch": "2025-12-19T22:00:01.999584",
        "meta_mean_motion": 15.93919811,
        "meta_eccentricity": 0.00038295,
        "meta_inclination": 69.994,
        "meta_ra_of_asc_node": 302.8985,
        "meta_arg_of_pericenter": 266.985,
        "meta_mean_anomaly": 238.1541,
        "meta_ephemeris_type": 0,
        "meta_classification_type": "U",
        "meta_norad_cat_id": 67024,
        "meta_element_set_no": 999,
        "meta_rev_at_epoch": 138,
        "meta_bstar": -0.0037504752,
        "meta_mean_motion_dot": -0.01372086,
        "meta_mean_motion_ddot": 0.00055246849,
        "tle_line1": "1 67024U 25293X   25353.91668981 -.01372086  55247-3 -37505-2 0  9993",
        "tle_line2": "2 67024  69.9940 302.8985 0003829 266.9850 238.1541 15.93919811  1384"
      },
      "geometry": {
        "type": "Point",
        "coordinates": [
          -147.9427707679563,
          -69.98004179606181
        ]
      }
    },
    {
      "type": "Feature",
      "properties": {
        "norad_id": 67025,
        "name": "STARLINK-36178",
        "group": "last-30-days",
        "lat": -69.84760034704566,
        "lon": -141.40757875203118,
        "alt_km": 298.333635340161,
        "timestamp": "2025-12-20T07:33:49.516799+00:00",
        "meta_object_name": "STARLINK-36178",
        "meta_object_id": "2025-293Y",
        "meta_epoch": "2025-12-19T22:00:01.999584",
        "meta_mean_motion": 15.93968454,
        "meta_eccentricity": 0.00038492,
        "meta_inclination": 69.9939,
        "meta_ra_of_asc_node": 302.8958,
        "meta_arg_of_pericenter": 266.6881,
        "meta_mean_anomaly": 240.6371,
        "meta_ephemeris_type": 0,
        "meta_classification_type": "U",
        "meta_norad_cat_id": 67025,
        "meta_element_set_no": 999,
        "meta_rev_at_epoch": 138,
        "meta_bstar": -0.00376226,
        "meta_mean_motion_dot": -0.01379858,
        "meta_mean_motion_ddot": 0.00055853367,
        "tle_line1": "1 67025U 25293Y   25353.91668981 -.01379858  55853-3 -37623-2 0  9992",
        "tle_line2": "2 67025  69.9939 302.8958 0003849 266.6881 240.6371 15.93968454  1382"
      },
      "geometry": {
        "type": "Point",
        "coordinates": [
          -141.40757875203118,
          -69.84760034704566
        ]
      }
    },
    {
      "type": "Feature",
      "properties": {
        "norad_id": 67026,
        "name": "STARLINK-36176",
        "group": "last-30-days",
        "lat": -68.72989365705504,
        "lon": -127.65834730974,
        "alt_km": 298.09261859145045,
        "timestamp": "2025-12-20T07:33:49.516809+00:00",
        "meta_object_name": "STARLINK-36176",
        "meta_object_id": "2025-293Z",
        "meta_epoch": "2025-12-19T22:00:01.999584",
        "meta_mean_motion": 15.94066285,
        "meta_eccentricity": 0.00038641,
        "meta_inclination": 69.9937,
        "meta_ra_of_asc_node": 302.8901,
        "meta_arg_of_pericenter": 267.3021,
        "meta_mean_anomaly": 244.8769,
        "meta_ephemeris_type": 0,
        "meta_classification_type": "U",
        "meta_norad_cat_id": 67026,
        "meta_element_set_no": 999,
        "meta_rev_at_epoch": 138,
        "meta_bstar": -0.0037721669,
        "meta_mean_motion_dot": -0.01390544,
        "meta_mean_motion_ddot": 0.00056710713,
        "tle_line1": "1 67026U 25293Z   25353.91668981 -.01390544  56711-3 -37722-2 0  9992",
        "tle_line2": "2 67026  69.9937 302.8901 0003864 267.3021 244.8769 15.94066285  1389"
      },
      "geometry": {
        "type": "Point",
        "coordinates": [
          -127.65834730974,
          -68.72989365705504
        ]
      }
    },
    {
      "type": "Feature",
      "properties": {
        "norad_id": 67027,
        "name": "STARLINK-36171",
        "group": "last-30-days",
        "lat": -69.33469898298344,
        "lon": -133.29181599767406,
        "alt_km": 298.24608153751615,
        "timestamp": "2025-12-20T07:33:49.516819+00:00",
        "meta_object_name": "STARLINK-36171",
        "meta_object_id": "2025-293AA",
        "meta_epoch": "2025-12-19T22:00:01.999584",
        "meta_mean_motion": 15.94021844,
        "meta_eccentricity": 0.00037797,
        "meta_inclination": 69.9936,
        "meta_ra_of_asc_node": 302.8927,
        "meta_arg_of_pericenter": 268.4778,
        "meta_mean_anomaly": 241.6553,
        "meta_ephemeris_type": 0,
        "meta_classification_type": "U",
        "meta_norad_cat_id": 67027,
        "meta_element_set_no": 999,
        "meta_rev_at_epoch": 138,
        "meta_bstar": -0.0037682157,
        "meta_mean_motion_dot": -0.0138584,
        "meta_mean_motion_ddot": 0.00056331618,
        "tle_line1": "1 67027U 25293AA  25353.91668981 -.01385840  56332-3 -37682-2 0  9990",
        "tle_line2": "2 67027  69.9936 302.8927 0003779 268.4778 241.6553 15.94021844  1381"
      },
      "geometry": {
        "type": "Point",
        "coordinates": [
          -133.29181599767406,
          -69.33469898298344
        ]
      }
    },
    {
      "type": "Feature",
      "properties": {
        "norad_id": 67028,
        "name": "STARLINK-36132",
        "group": "last-30-days",
        "lat": -66.60129305466252,
        "lon": -115.63187215425643,
        "alt_km": 297.86665186546634,
        "timestamp": "2025-12-20T07:33:49.516829+00:00",
        "meta_object_name": "STARLINK-36132",
        "meta_object_id": "2025-293AB",
        "meta_epoch": "2025-12-19T22:00:01.999584",
        "meta_mean_motion": 15.94167519,
        "meta_eccentricity": 0.00038711,
        "meta_inclination": 69.9939,
        "meta_ra_of_asc_node": 302.8842,
        "meta_arg_of_pericenter": 267.3402,
        "meta_mean_anomaly": 249.7422,
        "meta_ephemeris_type": 0,
        "meta_classification_type": "U",
        "meta_norad_cat_id": 67028,
        "meta_element_set_no": 999,
        "meta_rev_at_epoch": 138,
        "meta_bstar": -0.0037909154,
        "meta_mean_motion_dot": -0.01404795,
        "meta_mean_motion_ddot": 0.00057847822,
        "tle_line1": "1 67028U 25293AB  25353.91668981 -.01404795  57848-3 -37909-2 0  9997",
        "tle_line2": "2 67028  69.9939 302.8842 0003871 267.3402 249.7422 15.94167519  1380"
      },
      "geometry": {
        "type": "Point",
        "coordinates": [
          -115.63187215425643,
          -66.60129305466252
        ]
      }
    },
    {
      "type": "Feature",
      "properties": {
        "norad_id": 67029,
        "name": "STARLINK-36190",
        "group": "last-30-days",
        "lat": -67.8952385077393,
        "lon": -122.05074312001393,
        "alt_km": 298.03073365102955,
        "timestamp": "2025-12-20T07:33:49.516848+00:00",
        "meta_object_name": "STARLINK-36190",
        "meta_object_id": "2025-293AC",
        "meta_epoch": "2025-12-19T22:00:01.999584",
        "meta_mean_motion": 15.94110443,
        "meta_eccentricity": 0.00038095,
        "meta_inclination": 69.994,
        "meta_ra_of_asc_node": 302.8877,
        "meta_arg_of_pericenter": 266.471,
        "meta_mean_anomaly": 247.8823,
        "meta_ephemeris_type": 0,
        "meta_classification_type": "U",
        "meta_norad_cat_id": 67029,
        "meta_element_set_no": 999,
        "meta_rev_at_epoch": 138,
        "meta_bstar": -0.0037668569,
        "meta_mean_motion_dot": -0.01391785,
        "meta_mean_motion_ddot": 0.00056829764,
        "tle_line1": "1 67029U 25293AC  25353.91668981 -.01391785  56830-3 -37669-2 0  9995",
        "tle_line2": "2 67029  69.9940 302.8877 0003809 266.4710 247.8823 15.94110443  1382"
      },
      "geometry": {
        "type": "Point",
        "coordinates": [
          -122.05074312001393,
          -67.8952385077393
        ]
      }
    },
    {
      "type": "Feature",
      "properties": {
        "norad_id": 67030,
        "name": "STARLINK-36138",
        "group": "last-30-days",
        "lat": -35.26126568300545,
        "lon": 5.250600969859365,
        "alt_km": 309.0180187579317,
        "timestamp": "2025-12-20T07:33:49.516861+00:00",
        "meta_object_name": "STARLINK-36138",
        "meta_object_id": "2025-294A",
        "meta_epoch": "2025-12-19T22:00:01.999584",
        "meta_mean_motion": 15.89484113,
        "meta_eccentricity": 0.0001452,
        "meta_inclination": 42.9995,
        "meta_ra_of_asc_node": 138.3632,
        "meta_arg_of_pericenter": 279.3011,
        "meta_mean_anomaly": 196.4461,
        "meta_ephemeris_type": 0,
        "meta_classification_type": "U",
        "meta_norad_cat_id": 67030,
        "meta_element_set_no": 999,
        "meta_rev_at_epoch": 130,
        "meta_bstar": -0.0048352681,
        "meta_mean_motion_dot": -0.01295194,
        "meta_mean_motion_ddot": 0,
        "tle_line1": "1 67030U 25294A   25353.91668981 -.01295194  00000+0 -48353-2 0  9991",
        "tle_line2": "2 67030  42.9995 138.3632 0001452 279.3011 196.4461 15.89484113  1306"
      },
      "geometry": {
        "type": "Point",
        "coordinates": [
          5.250600969859365,
          -35.26126568300545
        ]
      }
    }
  ]
}